{"type": "FeatureCollection", "features": [{"type": "Feature", "properties": {"norad_id": 2807, "name": "OPS 7218 (TRANSIT 16)", "group": "nnss", "lat": 57.85363060867808, "lon": -5.955804281865595, "alt_km": 1048.3093355394785, "timestamp": "2025-12-27T13:34:49.563764+00:00", "meta": {"OBJECT_NAME": "OPS 7218 (TRANSIT 16)", "OBJECT_ID": "1967-048A", "EPOCH": "2025-12-27T06:14:25.688256", "MEAN_MOTION": 13.50725258, "ECCENTRICITY": 0.00221178, "INCLINATION": 89.6735, "RA_OF_ASC_NODE": 353.5344, "ARG_OF_PERICENTER": 75.4667, "MEAN_ANOMALY": 296.2606, "EPHEMERIS_TYPE": 0, "CLASSIFICATION_TYPE": "U", "NORAD_CAT_ID": 2807, "ELEMENT_SET_NO": 999, "REV_AT_EPOCH": 88472, "BSTAR": 0.00016857988, "MEAN_MOTION_DOT": 1.19e-06, "MEAN_MOTION_DDOT": 0}, "tle": {"line1": "1 02807U 67048A   25361.26001954  .00000119  00000+0  16858-3 0  9997", "line2": "2 02807  89.6735 353.5344 0022117  75.4667 296.2606 13.50725258884720"}}, "geometry": {"type": "Point", "coordinates": [-5.955804281865595, 57.85363060867808]}}, {"type": "Feature", "properties": {"norad_id": 2965, "name": "OPS 4947 (TRANSIT 17)", "group": "nnss", "lat": -88.43870335099975, "lon": -127.9107282668756, "alt_km": 1059.553351709037, "timestamp": "2025-12-27T13:34:49.563786+00:00", "meta": {"OBJECT_NAME": "OPS 4947 (TRANSIT 17)", "OBJECT_ID": "1967-092A", "EPOCH": "2025-12-27T01:44:28.419360", "MEAN_MOTION": 13.53457396, "ECCENTRICITY": 0.00472819, "INCLINATION": 89.2485, "RA_OF_ASC_NODE": 23.3417, "ARG_OF_PERICENTER": 192.1031, "MEAN_ANOMALY": 193.8499, "EPHEMERIS_TYPE": 0, "CLASSIFICATION_TYPE": "U", "NORAD_CAT_ID": 2965, "ELEMENT_SET_NO": 999, "REV_AT_EPOCH": 87291, "BSTAR": 0.00019935644, "MEAN_MOTION_DOT": 1.46e-06, "MEAN_MOTION_DDOT": 0}, "tle": {"line1": "1 02965U 67092A   25361.07255115  .00000146  00000+0  19936-3 0  9990", "line2": "2 02965  89.2485  23.3417 0047281 192.1031 193.8499 13.53457396872915"}}, "geometry": {"type": "Point", "coordinates": [-127.9107282668756, -88.43870335099975]}}, {"type": "Feature", "properties": {"norad_id": 3133, "name": "OPS 7034 (TRANSIT 18)", "group": "nnss", "lat": -43.62397707415945, "lon": -86.29156273696127, "alt_km": 1128.3099356790435, "timestamp": "2025-12-27T13:34:49.563800+00:00", "meta": {"OBJECT_NAME": "OPS 7034 (TRANSIT 18)", "OBJECT_ID": "1968-012A", "EPOCH": "2025-12-27T07:16:51.956832", "MEAN_MOTION": 13.51569235, "ECCENTRICITY": 0.0075134, "INCLINATION": 90.0284, "RA_OF_ASC_NODE": 273.6806, "ARG_OF_PERICENTER": 127.3584, "MEAN_ANOMALY": 352.9174, "EPHEMERIS_TYPE": 0, "CLASSIFICATION_TYPE": "U", "NORAD_CAT_ID": 3133, "ELEMENT_SET_NO": 999, "REV_AT_EPOCH": 57115, "BSTAR": 0.00020808153, "MEAN_MOTION_DOT": 1.48e-06, "MEAN_MOTION_DDOT": 0}, "tle": {"line1": "1 03133U 68012A   25361.30337913  .00000148  00000+0  20808-3 0  9996", "line2": "2 03133  90.0284 273.6806 0075134 127.3584 352.9174 13.51569235571157"}}, "geometry": {"type": "Point", "coordinates": [-86.29156273696127, -43.62397707415945]}}, {"type": "Feature", "properties": {"norad_id": 4507, "name": "NNSS 19 (TRANSIT 19)", "group": "nnss", "lat": -84.48990645580257, "lon": -125.40962973887005, "alt_km": 960.1055574550319, "timestamp": "2025-12-27T13:34:49.563811+00:00", "meta": {"OBJECT_NAME": "NNSS 19 (TRANSIT 19)", "OBJECT_ID": "1970-067A", "EPOCH": "2025-12-27T03:19:49.282176", "MEAN_MOTION": 13.51318074, "ECCENTRICITY": 0.01702391, "INCLINATION": 90.0045, "RA_OF_ASC_NODE": 234.5435, "ARG_OF_PERICENTER": 251.2246, "MEAN_ANOMALY": 107.037, "EPHEMERIS_TYPE": 0, "CLASSIFICATION_TYPE": "U", "NORAD_CAT_ID": 4507, "ELEMENT_SET_NO": 999, "REV_AT_EPOCH": 72416, "BSTAR": 0.00013052055, "MEAN_MOTION_DOT": 1.01e-06, "MEAN_MOTION_DDOT": 0}, "tle": {"line1": "1 04507U 70067A   25361.13876484  .00000101  00000+0  13052-3 0  9999", "line2": "2 04507  90.0045 234.5435 0170239 251.2246 107.0370 13.51318074724167"}}, "geometry": {"type": "Point", "coordinates": [-125.40962973887005, -84.48990645580257]}}, {"type": "Feature", "properties": {"norad_id": 6909, "name": "NNSS 20 (TRANSIT 20)", "group": "nnss", "lat": -21.772710944972896, "lon": -105.22556899063834, "alt_km": 934.2156984817102, "timestamp": "2025-12-27T13:34:49.563822+00:00", "meta": {"OBJECT_NAME": "NNSS 20 (TRANSIT 20)", "OBJECT_ID": "1973-081A", "EPOCH": "2025-12-27T06:40:47.864928", "MEAN_MOTION": 13.71442091, "ECCENTRICITY": 0.01559845, "INCLINATION": 89.8558, "RA_OF_ASC_NODE": 254.8364, "ARG_OF_PERICENTER": 35.2081, "MEAN_ANOMALY": 325.9268, "EPHEMERIS_TYPE": 0, "CLASSIFICATION_TYPE": "U", "NORAD_CAT_ID": 6909, "ELEMENT_SET_NO": 999, "REV_AT_EPOCH": 80560, "BSTAR": 0.00028554153, "MEAN_MOTION_DOT": 2.91e-06, "MEAN_MOTION_DDOT": 0}, "tle": {"line1": "1 06909U 73081A   25361.27833177  .00000291  00000+0  28554-3 0  9996", "line2": "2 06909  89.8558 254.8364 0155984  35.2081 325.9268 13.71442091805608"}}, "geometry": {"type": "Point", "coordinates": [-105.22556899063834, -21.772710944972896]}}, {"type": "Feature", "properties": {"norad_id": 10457, "name": "TRANSAT", "group": "nnss", "lat": 26.58279091717094, "lon": -102.10495588629526, "alt_km": 1055.3633002209717, "timestamp": "2025-12-27T13:34:49.563833+00:00", "meta": {"OBJECT_NAME": "TRANSAT", "OBJECT_ID": "1977-106A", "EPOCH": "2025-12-27T04:12:20.051712", "MEAN_MOTION": 13.48945884, "ECCENTRICITY": 0.00266749, "INCLINATION": 89.6473, "RA_OF_ASC_NODE": 78.0855, "ARG_OF_PERICENTER": 148.7401, "MEAN_ANOMALY": 268.7469, "EPHEMERIS_TYPE": 0, "CLASSIFICATION_TYPE": "U", "NORAD_CAT_ID": 10457, "ELEMENT_SET_NO": 999, "REV_AT_EPOCH": 36938, "BSTAR": 0.00012462096, "MEAN_MOTION_DOT": 8.9e-07, "MEAN_MOTION_DDOT": 0}, "tle": {"line1": "1 10457U 77106A   25361.17523208  .00000089  00000+0  12462-3 0  9997", "line2": "2 10457  89.6473  78.0855 0026674 148.7401 268.7469 13.48945884369384"}}, "geometry": {"type": "Point", "coordinates": [-102.10495588629526, 26.58279091717094]}}, {"type": "Feature", "properties": {"norad_id": 12458, "name": "NOVA 1", "group": "nnss", "lat": 52.96313277785297, "lon": -89.0200955435861, "alt_km": 1161.3022735379072, "timestamp": "2025-12-27T13:34:49.563844+00:00", "meta": {"OBJECT_NAME": "NOVA 1", "OBJECT_ID": "1981-044A", "EPOCH": "2025-12-27T07:49:23.643840", "MEAN_MOTION": 13.23280201, "ECCENTRICITY": 0.00156415, "INCLINATION": 89.8525, "RA_OF_ASC_NODE": 91.1789, "ARG_OF_PERICENTER": 68.0967, "MEAN_ANOMALY": 356.6259, "EPHEMERIS_TYPE": 0, "CLASSIFICATION_TYPE": "U", "NORAD_CAT_ID": 12458, "ELEMENT_SET_NO": 999, "REV_AT_EPOCH": 15379, "BSTAR": 0.00012527401, "MEAN_MOTION_DOT": 6.2e-07, "MEAN_MOTION_DDOT": 0}, "tle": {"line1": "1 12458U 81044A   25361.32596810  .00000062  00000+0  12527-3 0  9995", "line2": "2 12458  89.8525  91.1789 0015641  68.0967 356.6259 13.23280201153790"}}, "geometry": {"type": "Point", "coordinates": [-89.0200955435861, 52.96313277785297]}}, {"type": "Feature", "properties": {"norad_id": 15362, "name": "NOVA 3", "group": "nnss", "lat": -12.784310073999357, "lon": 80.73646200524611, "alt_km": 1165.6081656352308, "timestamp": "2025-12-27T13:34:49.563855+00:00", "meta": {"OBJECT_NAME": "NOVA 3", "OBJECT_ID": "1984-110A", "EPOCH": "2025-12-27T06:41:48.293952", "MEAN_MOTION": 13.23046512, "ECCENTRICITY": 0.00298338, "INCLINATION": 90.1216, "RA_OF_ASC_NODE": 80.7055, "ARG_OF_PERICENTER": 289.9278, "MEAN_ANOMALY": 131.7863, "EPHEMERIS_TYPE": 0, "CLASSIFICATION_TYPE": "U", "NORAD_CAT_ID": 15362, "ELEMENT_SET_NO": 999, "REV_AT_EPOCH": 98891, "BSTAR": 0.00019179605, "MEAN_MOTION_DOT": 8.9e-07, "MEAN_MOTION_DDOT": 0}, "tle": {"line1": "1 15362U 84110A   25361.27903118  .00000089  00000+0  19180-3 0  9997", "line2": "2 15362  90.1216  80.7055 0029833 289.9278 131.7863 13.23046512988914"}}, "geometry": {"type": "Point", "coordinates": [80.73646200524611, -12.784310073999357]}}, {"type": "Feature", "properties": {"norad_id": 15935, "name": "OSCAR 30", "group": "nnss", "lat": 42.44651221194925, "lon": 99.93816826344838, "alt_km": 993.8749543725489, "timestamp": "2025-12-27T13:34:49.563865+00:00", "meta": {"OBJECT_NAME": "OSCAR 30", "OBJECT_ID": "1985-066A", "EPOCH": "2025-12-27T06:26:13.450272", "MEAN_MOTION": 13.36080793, "ECCENTRICITY": 0.01687057, "INCLINATION": 90.1653, "RA_OF_ASC_NODE": 100.0846, "ARG_OF_PERICENTER": 43.2828, "MEAN_ANOMALY": 8.4639, "EPHEMERIS_TYPE": 0, "CLASSIFICATION_TYPE": "U", "NORAD_CAT_ID": 15935, "ELEMENT_SET_NO": 999, "REV_AT_EPOCH": 96647, "BSTAR": 0.00016690867, "MEAN_MOTION_DOT": 1.02e-06, "MEAN_MOTION_DDOT": 0}, "tle": {"line1": "1 15935U 85066A   25361.26821123  .00000102  00000+0  16691-3 0  9998", "line2": "2 15935  90.1653 100.0846 0168705  43.2828   8.4639 13.36080793966474"}}, "geometry": {"type": "Point", "coordinates": [99.93816826344838, 42.44651221194925]}}, {"type": "Feature", "properties": {"norad_id": 15936, "name": "OSCAR 24", "group": "nnss", "lat": 67.9740743013462, "lon": -86.9894059634138, "alt_km": 1058.516612524757, "timestamp": "2025-12-27T13:34:49.563876+00:00", "meta": {"OBJECT_NAME": "OSCAR 24", "OBJECT_ID": "1985-066B", "EPOCH": "2025-12-27T07:58:31.321344", "MEAN_MOTION": 13.35938011, "ECCENTRICITY": 0.01698896, "INCLINATION": 90.1791, "RA_OF_ASC_NODE": 92.5635, "ARG_OF_PERICENTER": 49.5567, "MEAN_ANOMALY": 18.1592, "EPHEMERIS_TYPE": 0, "CLASSIFICATION_TYPE": "U", "NORAD_CAT_ID": 15936, "ELEMENT_SET_NO": 999, "REV_AT_EPOCH": 96838, "BSTAR": 0.0001491353, "MEAN_MOTION_DOT": 9.2e-07, "MEAN_MOTION_DDOT": 0}, "tle": {"line1": "1 15936U 85066B   25361.33230696  .00000092  00000+0  14914-3 0  9990", "line2": "2 15936  90.1791  92.5635 0169889  49.5567  18.1592 13.35938011968384"}}, "geometry": {"type": "Point", "coordinates": [-86.9894059634138, 67.9740743013462]}}]}